{
  "type": "FeatureCollection",
  "features": [
    {
      "type": "Feature",
      "properties": {
        "norad_id": 55973,
        "name": "TIANMU-1 03",
        "group": "weather",
        "lat": 50.315105567593505,
        "lon": 155.2226181848067,
        "alt_km": 435.4464234516172,
        "timestamp": "2025-12-27T07:26:24.864158+00:00",
        "meta_object_name": "TIANMU-1 03",
        "meta_object_id": "2023-039A",
        "meta_epoch": "2025-12-26T23:25:47.426304",
        "meta_mean_motion": 15.41349109,
        "meta_eccentricity": 0.000367,
        "meta_inclination": 97.5115,
        "meta_ra_of_asc_node": 164.0294,
        "meta_arg_of_pericenter": 18.9695,
        "meta_mean_anomaly": 341.1687,
        "meta_ephemeris_type": 0,
        "meta_classification_type": "U",
        "meta_norad_cat_id": 55973,
        "meta_element_set_no": 999,
        "meta_rev_at_epoch": 15425,
        "meta_bstar": 0.00043569415,
        "meta_mean_motion_dot": 0.0001811,
        "meta_mean_motion_ddot": 0,
        "tle_line1": "1 55973U 23039A   25360.97624336  .00018110  00000+0  43569-3 0  9992",
        "tle_line2": "2 55973  97.5115 164.0294 0003670  18.9695 341.1687 15.41349109154253"
      },
      "geometry": {
        "type": "Point",
        "coordinates": [
          155.2226181848067,
          50.315105567593505
        ]
      }
    },
    {
      "type": "Feature",
      "properties": {
        "norad_id": 55974,
        "name": "TIANMU-1 04",
        "group": "weather",
        "lat": -2.879485809315402,
        "lon": -16.821946953023346,
        "alt_km": 447.45525920063847,
        "timestamp": "2025-12-27T07:26:24.864225+00:00",
        "meta_object_name": "TIANMU-1 04",
        "meta_object_id": "2023-039B",
        "meta_epoch": "2025-12-26T22:51:40.574880",
        "meta_mean_motion": 15.41690795,
        "meta_eccentricity": 0.00042781,
        "meta_inclination": 97.5046,
        "meta_ra_of_asc_node": 163.1905,
        "meta_arg_of_pericenter": 12.4005,
        "meta_mean_anomaly": 347.7346,
        "meta_ephemeris_type": 0,
        "meta_classification_type": "U",
        "meta_norad_cat_id": 55974,
        "meta_element_set_no": 999,
        "meta_rev_at_epoch": 15425,
        "meta_bstar": 0.00041433503,
        "meta_mean_motion_dot": 0.00017414,
        "meta_mean_motion_ddot": 0,
        "tle_line1": "1 55974U 23039B   25360.95255295  .00017414  00000+0  41434-3 0  9990",
        "tle_line2": "2 55974  97.5046 163.1905 0004278  12.4005 347.7346 15.41690795154259"
      },
      "geometry": {
        "type": "Point",
        "coordinates": [
          -16.821946953023346,
          -2.879485809315402
        ]
      }
    },
    {
      "type": "Feature",
      "properties": {
        "norad_id": 55975,
        "name": "TIANMU-1 05",
        "group": "weather",
        "lat": -14.591916007672587,
        "lon": -17.917285886982864,
        "alt_km": 449.4483726896342,
        "timestamp": "2025-12-27T07:26:24.864244+00:00",
        "meta_object_name": "TIANMU-1 05",
        "meta_object_id": "2023-039C",
        "meta_epoch": "2025-12-26T22:48:29.092608",
        "meta_mean_motion": 15.41302484,
        "meta_eccentricity": 0.00038632,
        "meta_inclination": 97.5093,
        "meta_ra_of_asc_node": 163.6809,
        "meta_arg_of_pericenter": 39.0802,
        "meta_mean_anomaly": 321.0723,
        "meta_ephemeris_type": 0,
        "meta_classification_type": "U",
        "meta_norad_cat_id": 55975,
        "meta_element_set_no": 999,
        "meta_rev_at_epoch": 15423,
        "meta_bstar": 0.00041093402,
        "meta_mean_motion_dot": 0.00017047,
        "meta_mean_motion_ddot": 0,
        "tle_line1": "1 55975U 23039C   25360.95033672  .00017047  00000+0  41093-3 0  9997",
        "tle_line2": "2 55975  97.5093 163.6809 0003863  39.0802 321.0723 15.41302484154236"
      },
      "geometry": {
        "type": "Point",
        "coordinates": [
          -17.917285886982864,
          -14.591916007672587
        ]
      }
    },
    {
      "type": "Feature",
      "properties": {
        "norad_id": 55976,
        "name": "TIANMU-1 06",
        "group": "weather",
        "lat": 6.368646827813644,
        "lon": -14.628452712437438,
        "alt_km": 445.3831624426484,
        "timestamp": "2025-12-27T07:26:24.864264+00:00",
        "meta_object_name": "TIANMU-1 06",
        "meta_object_id": "2023-039D",
        "meta_epoch": "2025-12-26T22:54:07.470432",
        "meta_mean_motion": 15.41743131,
        "meta_eccentricity": 0.00041097,
        "meta_inclination": 97.5103,
        "meta_ra_of_asc_node": 164.1618,
        "meta_arg_of_pericenter": 32.728,
        "meta_mean_anomaly": 327.422,
        "meta_ephemeris_type": 0,
        "meta_classification_type": "U",
        "meta_norad_cat_id": 55976,
        "meta_element_set_no": 999,
        "meta_rev_at_epoch": 15425,
        "meta_bstar": 0.00043920325,
        "meta_mean_motion_dot": 0.00018499,
        "meta_mean_motion_ddot": 0,
        "tle_line1": "1 55976U 23039D   25360.95425313  .00018499  00000+0  43920-3 0  9998",
        "tle_line2": "2 55976  97.5103 164.1618 0004109  32.7280 327.4220 15.41743131154259"
      },
      "geometry": {
        "type": "Point",
        "coordinates": [
          -14.628452712437438,
          6.368646827813644
        ]
      }
    },
    {
      "type": "Feature",
      "properties": {
        "norad_id": 56232,
        "name": "FENGYUN 3G",
        "group": "weather",
        "lat": -49.231045757978904,
        "lon": 75.33671682549921,
        "alt_km": 412.1872397183379,
        "timestamp": "2025-12-27T07:26:24.864280+00:00",
        "meta_object_name": "FENGYUN 3G",
        "meta_object_id": "2023-055A",
        "meta_epoch": "2025-12-26T22:31:11.972064",
        "meta_mean_motion": 15.52169202,
        "meta_eccentricity": 0.00039258,
        "meta_inclination": 49.9927,
        "meta_ra_of_asc_node": 154.1884,
        "meta_arg_of_pericenter": 297.083,
        "meta_mean_anomaly": 62.9736,
        "meta_ephemeris_type": 0,
        "meta_classification_type": "U",
        "meta_norad_cat_id": 56232,
        "meta_element_set_no": 999,
        "meta_rev_at_epoch": 15323,
        "meta_bstar": 0.0005425063,
        "meta_mean_motion_dot": 0.00033183,
        "meta_mean_motion_ddot": 0,
        "tle_line1": "1 56232U 23055A   25360.93833301  .00033183  00000+0  54251-3 0  9996",
        "tle_line2": "2 56232  49.9927 154.1884 0003925 297.0830  62.9736 15.52169202153239"
      },
      "geometry": {
        "type": "Point",
        "coordinates": [
          75.33671682549921,
          -49.231045757978904
        ]
      }
    },
    {
      "type": "Feature",
      "properties": {
        "norad_id": 57166,
        "name": "METEOR-M2 3",
        "group": "weather",
        "lat": 19.070386721985475,
        "lon": 51.58185889539438,
        "alt_km": 810.6634151131311,
        "timestamp": "2025-12-27T07:26:24.864296+00:00",
        "meta_object_name": "METEOR-M2 3",
        "meta_object_id": "2023-091A",
        "meta_epoch": "2025-12-26T22:55:06.071232",
        "meta_mean_motion": 14.24027775,
        "meta_eccentricity": 0.00031666,
        "meta_inclination": 98.636,
        "meta_ra_of_asc_node": 54.2447,
        "meta_arg_of_pericenter": 323.7639,
        "meta_mean_anomaly": 36.3325,
        "meta_ephemeris_type": 0,
        "meta_classification_type": "U",
        "meta_norad_cat_id": 57166,
        "meta_element_set_no": 999,
        "meta_rev_at_epoch": 13000,
        "meta_bstar": 2.4609714e-05,
        "meta_mean_motion_dot": 1.3e-07,
        "meta_mean_motion_ddot": 0,
        "tle_line1": "1 57166U 23091A   25360.95493138  .00000013  00000+0  24610-4 0  9998",
        "tle_line2": "2 57166  98.6360  54.2447 0003166 323.7639  36.3325 14.24027775130009"
      },
      "geometry": {
        "type": "Point",
        "coordinates": [
          51.58185889539438,
          19.070386721985475
        ]
      }
    },
    {
      "type": "Feature",
      "properties": {
        "norad_id": 57399,
        "name": "TIANMU-1 07",
        "group": "weather",
        "lat": -77.50032746838559,
        "lon": -164.40936821737083,
        "alt_km": 490.99546291070146,
        "timestamp": "2025-12-27T07:26:24.864313+00:00",
        "meta_object_name": "TIANMU-1 07",
        "meta_object_id": "2023-101A",
        "meta_epoch": "2025-12-26T22:26:59.105184",
        "meta_mean_motion": 15.28275296,
        "meta_eccentricity": 0.00048773,
        "meta_inclination": 97.2857,
        "meta_ra_of_asc_node": 50.4719,
        "meta_arg_of_pericenter": 44.6112,
        "meta_mean_anomaly": 315.5519,
        "meta_ephemeris_type": 0,
        "meta_classification_type": "U",
        "meta_norad_cat_id": 57399,
        "meta_element_set_no": 999,
        "meta_rev_at_epoch": 13532,
        "meta_bstar": 0.00029696563,
        "meta_mean_motion_dot": 8.111e-05,
        "meta_mean_motion_ddot": 0,
        "tle_line1": "1 57399U 23101A   25360.93540631  .00008111  00000+0  29697-3 0  9993",
        "tle_line2": "2 57399  97.2857  50.4719 0004877  44.6112 315.5519 15.28275296135323"
      },
      "geometry": {
        "type": "Point",
        "coordinates": [
          -164.40936821737083,
          -77.50032746838559
        ]
      }
    }
  ]
}